SES-15 (WAAS/PRN 133)   
1 42709U 17026A   26177.72018891  .00000072  00000+0  00000+0 0  9994
2 42709   0.0197 336.5647 0000730 101.7226 326.6485  1.00267078  7523
QZS-2 (QZSS/PRN 194)    
1 42738U 17028A   26177.49072513 -.00000138  00000+0  00000+0 0  9997
2 42738  39.4133 243.0175 0759188 269.3662  80.9134  1.00281441  7714
QZS-3 (QZSS/PRN 199)    
1 42917U 17048A   26177.72058763 -.00000336  00000+0  00000+0 0  9995
2 42917   0.0674 148.4852 0002278 303.2042 209.6105  1.00272113 32350
COSMOS 2522 (752)       
1 42939U 17055A   26175.16181676  .00000104  00000+0  00000+0 0  9995
2 42939  64.0776 191.6387 0008409 235.5259 124.4452  2.13101107 68121
QZS-4 (QZSS/PRN 195)    
1 42965U 17062A   26177.33476632 -.00000355  00000+0  00000+0 0  9991
2 42965  40.1041 343.3683 0746721 268.2556 281.2054  1.00296962 31897
BEIDOU-3 M1 (C19)       
1 43001U 17069A   26177.26129769 -.00000086  00000+0  00000+0 0  9999
2 43001  56.7000  62.7851 0009948 326.4668  33.5129  1.86231392 58777
BEIDOU-3 M2 (C20)       
1 43002U 17069B   26177.20007009 -.00000086  00000+0  00000+0 0  9996
2 43002  56.6993  62.8231 0008922 352.8542   7.1754  1.86230727 58767
GSAT0215 (GALILEO 19)   
1 43055U 17079A   26176.22771248  .00000057  00000+0  00000+0 0  9996
2 43055  55.0718 221.2853 0003380 264.8914  95.1572  1.70474697 53121
GSAT0216 (GALILEO 20)   
1 43056U 17079B   26177.10544658  .00000062  00000+0  00000+0 0  9994
2 43056  55.0717 221.2611 0004659 276.6161  83.4222  1.70474721 53151
GSAT0217 (GALILEO 21)   
1 43057U 17079C   26177.32624419  .00000063  00000+0  00000+0 0  9994
2 43057  55.0685 221.2528 0003945 287.8828  72.1663  1.70474719 53144
GSAT0218 (GALILEO 22)   
1 43058U 17079D   26171.68048465  .00000026  00000+0  00000+0 0  9998
2 43058  55.0711 221.4058 0005507 273.6284  86.3834  1.70474354 53074
BEIDOU-3 M7 (C27)       
1 43107U 18003A   26177.47885263 -.00000101  00000+0  00000+0 0  9994
2 43107  54.3190 301.9902 0004924  95.0788 264.9711  1.86228221 57520
BEIDOU-3 M8 (C28)       
1 43108U 18003B   26177.42348149 -.00000102  00000+0  00000+0 0  9998
2 43108  54.3116 301.9737 0002473 260.1412  99.8244  1.86231029 57538
BEIDOU-3 M4 (C22)       
1 43207U 18018A   26176.79262565 -.00000089  00000+0  00000+0 0  9994
2 43207  56.6586  62.8641 0007547  21.9749 338.0980  1.86231340 56905
BEIDOU-3 M3 (C21)       
1 43208U 18018B   26175.24823940 -.00000095  00000+0  00000+0 0  9991
2 43208  56.6570  62.9189 0008331 342.5104  17.4973  1.86231188 56872
BEIDOU-3 M9 (C29)       
1 43245U 18029A   26176.54001984 -.00000104  00000+0  00000+0 0  9995
2 43245  54.1853 299.6556 0000940 160.1846 199.8137  1.86228508 56051
BEIDOU-3 M10 (C30)      
1 43246U 18029B   26177.54825258 -.00000098  00000+0  00000+0 0  9997
2 43246  54.1821 299.6470 0003809  41.5678 318.4573  1.86229311 56050
