[{"OBJECT_NAME":"SES-15 (WAAS/PRN 133)","OBJECT_ID":"2017-026A","EPOCH":"2026-06-26T17:17:04.321824","MEAN_MOTION":1.00267078,"ECCENTRICITY":7.3e-5,"INCLINATION":0.0197,"RA_OF_ASC_NODE":336.5647,"ARG_OF_PERICENTER":101.7226,"MEAN_ANOMALY":326.6485,"EPHEMERIS_TYPE":0,"CLASSIFICATION_TYPE":"U","NORAD_CAT_ID":42709,"ELEMENT_SET_NO":999,"REV_AT_EPOCH":752,"BSTAR":0,"MEAN_MOTION_DOT":7.2e-7,"MEAN_MOTION_DDOT":0},{"OBJECT_NAME":"QZS-2 (QZSS/PRN 194)","OBJECT_ID":"2017-028A","EPOCH":"2026-06-26T11:46:38.651232","MEAN_MOTION":1.00281441,"ECCENTRICITY":0.0759188,"INCLINATION":39.4133,"RA_OF_ASC_NODE":243.0175,"ARG_OF_PERICENTER":269.3662,"MEAN_ANOMALY":80.9134,"EPHEMERIS_TYPE":0,"CLASSIFICATION_TYPE":"U","NORAD_CAT_ID":42738,"ELEMENT_SET_NO":999,"REV_AT_EPOCH":771,"BSTAR":0,"MEAN_MOTION_DOT":-1.38e-6,"MEAN_MOTION_DDOT":0},{"OBJECT_NAME":"QZS-3 (QZSS/PRN 199)","OBJECT_ID":"2017-048A","EPOCH":"2026-06-26T17:17:38.771232","MEAN_MOTION":1.00272113,"ECCENTRICITY":0.0002278,"INCLINATION":0.0674,"RA_OF_ASC_NODE":148.4852,"ARG_OF_PERICENTER":303.2042,"MEAN_ANOMALY":209.6105,"EPHEMERIS_TYPE":0,"CLASSIFICATION_TYPE":"U","NORAD_CAT_ID":42917,"ELEMENT_SET_NO":999,"REV_AT_EPOCH":3235,"BSTAR":0,"MEAN_MOTION_DOT":-3.36e-6,"MEAN_MOTION_DDOT":0},{"OBJECT_NAME":"COSMOS 2522 (752)","OBJECT_ID":"2017-055A","EPOCH":"2026-06-24T03:53:00.968064","MEAN_MOTION":2.13101107,"ECCENTRICITY":0.00084097,"INCLINATION":64.0776,"RA_OF_ASC_NODE":191.6387,"ARG_OF_PERICENTER":235.5259,"MEAN_ANOMALY":124.4452,"EPHEMERIS_TYPE":0,"CLASSIFICATION_TYPE":"U","NORAD_CAT_ID":42939,"ELEMENT_SET_NO":999,"REV_AT_EPOCH":6812,"BSTAR":0,"MEAN_MOTION_DOT":1.04e-6,"MEAN_MOTION_DDOT":0},{"OBJECT_NAME":"QZS-4 (QZSS/PRN 195)","OBJECT_ID":"2017-062A","EPOCH":"2026-06-26T08:02:03.810048","MEAN_MOTION":1.00296962,"ECCENTRICITY":0.0746721,"INCLINATION":40.1041,"RA_OF_ASC_NODE":343.3683,"ARG_OF_PERICENTER":268.2556,"MEAN_ANOMALY":281.2054,"EPHEMERIS_TYPE":0,"CLASSIFICATION_TYPE":"U","NORAD_CAT_ID":42965,"ELEMENT_SET_NO":999,"REV_AT_EPOCH":3189,"BSTAR":0,"MEAN_MOTION_DOT":-3.55e-6,"MEAN_MOTION_DDOT":0},{"OBJECT_NAME":"BEIDOU-3 M1 (C19)","OBJECT_ID":"2017-069A","EPOCH":"2026-06-26T06:16:16.120416","MEAN_MOTION":1.86231392,"ECCENTRICITY":0.0009948,"INCLINATION":56.7,"RA_OF_ASC_NODE":62.7851,"ARG_OF_PERICENTER":326.4668,"MEAN_ANOMALY":33.5129,"EPHEMERIS_TYPE":0,"CLASSIFICATION_TYPE":"U","NORAD_CAT_ID":43001,"ELEMENT_SET_NO":999,"REV_AT_EPOCH":5877,"BSTAR":0,"MEAN_MOTION_DOT":-8.6e-7,"MEAN_MOTION_DDOT":0},{"OBJECT_NAME":"BEIDOU-3 M2 (C20)","OBJECT_ID":"2017-069B","EPOCH":"2026-06-26T04:48:06.055776","MEAN_MOTION":1.86230727,"ECCENTRICITY":0.0008922,"INCLINATION":56.6993,"RA_OF_ASC_NODE":62.8231,"ARG_OF_PERICENTER":352.8542,"MEAN_ANOMALY":7.1754,"EPHEMERIS_TYPE":0,"CLASSIFICATION_TYPE":"U","NORAD_CAT_ID":43002,"ELEMENT_SET_NO":999,"REV_AT_EPOCH":5876,"BSTAR":0,"MEAN_MOTION_DOT":-8.6e-7,"MEAN_MOTION_DDOT":0},{"OBJECT_NAME":"GSAT0215 (GALILEO 19)","OBJECT_ID":"2017-079A","EPOCH":"2026-06-25T05:27:54.358272","MEAN_MOTION":1.70474697,"ECCENTRICITY":0.00033807,"INCLINATION":55.0718,"RA_OF_ASC_NODE":221.2853,"ARG_OF_PERICENTER":264.8914,"MEAN_ANOMALY":95.1572,"EPHEMERIS_TYPE":0,"CLASSIFICATION_TYPE":"U","NORAD_CAT_ID":43055,"ELEMENT_SET_NO":999,"REV_AT_EPOCH":5312,"BSTAR":0,"MEAN_MOTION_DOT":5.7e-7,"MEAN_MOTION_DDOT":0},{"OBJECT_NAME":"GSAT0216 (GALILEO 20)","OBJECT_ID":"2017-079B","EPOCH":"2026-06-26T02:31:50.584512","MEAN_MOTION":1.70474721,"ECCENTRICITY":0.00046591,"INCLINATION":55.0717,"RA_OF_ASC_NODE":221.2611,"ARG_OF_PERICENTER":276.6161,"MEAN_ANOMALY":83.4222,"EPHEMERIS_TYPE":0,"CLASSIFICATION_TYPE":"U","NORAD_CAT_ID":43056,"ELEMENT_SET_NO":999,"REV_AT_EPOCH":5315,"BSTAR":0,"MEAN_MOTION_DOT":6.2e-7,"MEAN_MOTION_DDOT":0},{"OBJECT_NAME":"GSAT0217 (GALILEO 21)","OBJECT_ID":"2017-079C","EPOCH":"2026-06-26T07:49:47.498016","MEAN_MOTION":1.70474719,"ECCENTRICITY":0.0003945,"INCLINATION":55.0685,"RA_OF_ASC_NODE":221.2528,"ARG_OF_PERICENTER":287.8828,"MEAN_ANOMALY":72.1663,"EPHEMERIS_TYPE":0,"CLASSIFICATION_TYPE":"U","NORAD_CAT_ID":43057,"ELEMENT_SET_NO":999,"REV_AT_EPOCH":5314,"BSTAR":0,"MEAN_MOTION_DOT":6.3e-7,"MEAN_MOTION_DDOT":0},{"OBJECT_NAME":"GSAT0218 (GALILEO 22)","OBJECT_ID":"2017-079D","EPOCH":"2026-06-20T16:19:53.873760","MEAN_MOTION":1.70474354,"ECCENTRICITY":0.00055072,"INCLINATION":55.0711,"RA_OF_ASC_NODE":221.4058,"ARG_OF_PERICENTER":273.6284,"MEAN_ANOMALY":86.3834,"EPHEMERIS_TYPE":0,"CLASSIFICATION_TYPE":"U","NORAD_CAT_ID":43058,"ELEMENT_SET_NO":999,"REV_AT_EPOCH":5307,"BSTAR":0,"MEAN_MOTION_DOT":2.6e-7,"MEAN_MOTION_DDOT":0},{"OBJECT_NAME":"BEIDOU-3 M7 (C27)","OBJECT_ID":"2018-003A","EPOCH":"2026-06-26T11:29:32.867232","MEAN_MOTION":1.86228221,"ECCENTRICITY":0.0004924,"INCLINATION":54.319,"RA_OF_ASC_NODE":301.9902,"ARG_OF_PERICENTER":95.0788,"MEAN_ANOMALY":264.9711,"EPHEMERIS_TYPE":0,"CLASSIFICATION_TYPE":"U","NORAD_CAT_ID":43107,"ELEMENT_SET_NO":999,"REV_AT_EPOCH":5752,"BSTAR":0,"MEAN_MOTION_DOT":-1.01e-6,"MEAN_MOTION_DDOT":0},{"OBJECT_NAME":"BEIDOU-3 M8 (C28)","OBJECT_ID":"2018-003B","EPOCH":"2026-06-26T10:09:48.800736","MEAN_MOTION":1.86231029,"ECCENTRICITY":0.0002473,"INCLINATION":54.3116,"RA_OF_ASC_NODE":301.9737,"ARG_OF_PERICENTER":260.1412,"MEAN_ANOMALY":99.8244,"EPHEMERIS_TYPE":0,"CLASSIFICATION_TYPE":"U","NORAD_CAT_ID":43108,"ELEMENT_SET_NO":999,"REV_AT_EPOCH":5753,"BSTAR":0,"MEAN_MOTION_DOT":-1.02e-6,"MEAN_MOTION_DDOT":0},{"OBJECT_NAME":"BEIDOU-3 M4 (C22)","OBJECT_ID":"2018-018A","EPOCH":"2026-06-25T19:01:22.856160","MEAN_MOTION":1.8623134,"ECCENTRICITY":0.0007547,"INCLINATION":56.6586,"RA_OF_ASC_NODE":62.8641,"ARG_OF_PERICENTER":21.9749,"MEAN_ANOMALY":338.098,"EPHEMERIS_TYPE":0,"CLASSIFICATION_TYPE":"U","NORAD_CAT_ID":43207,"ELEMENT_SET_NO":999,"REV_AT_EPOCH":5690,"BSTAR":0,"MEAN_MOTION_DOT":-8.9e-7,"MEAN_MOTION_DDOT":0},{"OBJECT_NAME":"BEIDOU-3 M3 (C21)","OBJECT_ID":"2018-018B","EPOCH":"2026-06-24T05:57:27.884160","MEAN_MOTION":1.86231188,"ECCENTRICITY":0.00083319,"INCLINATION":56.657,"RA_OF_ASC_NODE":62.9189,"ARG_OF_PERICENTER":342.5104,"MEAN_ANOMALY":17.4973,"EPHEMERIS_TYPE":0,"CLASSIFICATION_TYPE":"U","NORAD_CAT_ID":43208,"ELEMENT_SET_NO":999,"REV_AT_EPOCH":5687,"BSTAR":0,"MEAN_MOTION_DOT":-9.5e-7,"MEAN_MOTION_DDOT":0},{"OBJECT_NAME":"BEIDOU-3 M9 (C29)","OBJECT_ID":"2018-029A","EPOCH":"2026-06-25T12:57:37.714176","MEAN_MOTION":1.86228508,"ECCENTRICITY":9.4e-5,"INCLINATION":54.1853,"RA_OF_ASC_NODE":299.6556,"ARG_OF_PERICENTER":160.1846,"MEAN_ANOMALY":199.8137,"EPHEMERIS_TYPE":0,"CLASSIFICATION_TYPE":"U","NORAD_CAT_ID":43245,"ELEMENT_SET_NO":999,"REV_AT_EPOCH":5605,"BSTAR":0,"MEAN_MOTION_DOT":-1.04e-6,"MEAN_MOTION_DDOT":0},{"OBJECT_NAME":"BEIDOU-3 M10 (C30)","OBJECT_ID":"2018-029B","EPOCH":"2026-06-26T13:09:29.022912","MEAN_MOTION":1.86229311,"ECCENTRICITY":0.0003809,"INCLINATION":54.1821,"RA_OF_ASC_NODE":299.647,"ARG_OF_PERICENTER":41.5678,"MEAN_ANOMALY":318.4573,"EPHEMERIS_TYPE":0,"CLASSIFICATION_TYPE":"U","NORAD_CAT_ID":43246,"ELEMENT_SET_NO":999,"REV_AT_EPOCH":5605,"BSTAR":0,"MEAN_MOTION_DOT":-9.8e-7,"MEAN_MOTION_DDOT":0}]
